ORBCOMM FM33            
1 25983U 99065D   25178.49928745  .00000493  00000+0  20014-3 0  9992
2 25983  45.0293 309.9304 0008520 125.0305 235.1345 14.40016555337626
ORBCOMM FM36            
1 25984U 99065E   25178.33881815  .00000644  00000+0  25696-3 0  9991
2 25984  45.0403  42.7851 0003535   3.7457 356.3418 14.38140032336474
ORBCOMM FM35            
1 25985U 99065F   25178.32579969  .00000515  00000+0  21920-3 0  9998
2 25985  45.0405  47.9604 0004130  78.6637 281.4675 14.37110689336436
ORBCOMM FM34            
1 25986U 99065G   25177.73551155  .00000450  00000+0  19766-3 0  9993
2 25986  45.0401  51.2198 0004604  30.9227 329.1892 14.37132099336273
ORBCOMM FM38            
1 33060U 08031A   25178.53242449  .00000840  00000+0  13375-3 0  9993
2 33060  48.4407 265.9451 0004133  83.8575 276.2811 14.81352062916274
ORBCOMM FM41            
1 33061U 08031B   25178.54108794  .00000832  00000+0  13392-3 0  9999
2 33061  48.4444 273.7182 0003390  64.8839 308.6440 14.80937324916200
ORBCOMM FM29            
1 33062U 08031C   25177.74159109  .00000953  00000+0  14905-3 0  9992
2 33062  48.4400 285.3239 0005126  62.1449  92.9592 14.81038593915562
ORBCOMM FM39            
1 33063U 08031D   25177.41502920  .00000857  00000+0  14127-3 0  9999
2 33063  48.4415 311.2527 0006257  31.1742 328.9543 14.79587803915160
